start=new Date('2021-09-30T00:00:00.000Z').valueOf();
sats=[{"ARG_OF_PERICENTER":"143.5106","CLASSIFICATION_TYPE":"U","EPHEMERIS_TYPE":"0","BSTAR":"0.00006545100000","MEAN_MOTION_DDOT":"0.0000000000000","ELEMENT_SET_NO":"999","MEAN_ANOMALY":"216.6351","NORAD_CAT_ID":"46785","OBJECT_ID":"2020-074AY","PERIOD":"95.592","LAUNCH_DATE":"2020-10-24","RCS_SIZE":"LARGE","COUNTRY_CODE":"US","INCLINATION":"53.0573","ECCENTRICITY":"0.00068580","MEAN_MOTION":"15.06400710","OBJECT_TYPE":"PAYLOAD","GP_ID":"185800643","REV_AT_EPOCH":"5201","TIME_SYSTEM":"UTC","APOAPSIS":"551.961","SITE":"AFETR","EPOCH":"2021-09-29T15:25:03.015264","CENTER_NAME":"EARTH","TLE_LINE2":"2 46785  53.0573  33.2764 0006858 143.5106 216.6351 15.06400710 52013","SEMIMAJOR_AXIS":"6925.346","DECAY_DATE":null,"PERIAPSIS":"542.462","RA_OF_ASC_NODE":"33.2764","MEAN_MOTION_DOT":"0.00000692","MEAN_ELEMENT_THEORY":"SGP4","FILE":"3135298","OBJECT_NAME":"STARLINK-1883","TLE_LINE1":"1 46785U 20074AY  21272.64239601  .00000692  00000-0  65451-4 0  9990","REF_FRAME":"TEME"},{"RCS_SIZE":"LARGE","COUNTRY_CODE":"US","NORAD_CAT_ID":"46786","MEAN_ANOMALY":"26.2386","OBJECT_ID":"2020-074AZ","PERIOD":"95.591","LAUNCH_DATE":"2020-10-24","EPHEMERIS_TYPE":"0","BSTAR":"0.00028515000000","MEAN_MOTION_DDOT":"0.0000000000000","ELEMENT_SET_NO":"999","ARG_OF_PERICENTER":"333.8375","CLASSIFICATION_TYPE":"U","GP_ID":"185800636","REV_AT_EPOCH":"5228","TIME_SYSTEM":"UTC","MEAN_MOTION":"15.06419614","OBJECT_TYPE":"PAYLOAD","ECCENTRICITY":"0.00044940","INCLINATION":"53.0525","SEMIMAJOR_AXIS":"6925.288","DECAY_DATE":null,"PERIAPSIS":"544.041","RA_OF_ASC_NODE":"13.6590","TLE_LINE2":"2 46786  53.0525  13.6590 0004494 333.8375  26.2386 15.06419614 52281","APOAPSIS":"550.266","SITE":"AFETR","EPOCH":"2021-09-29T13:20:16.757664","CENTER_NAME":"EARTH","REF_FRAME":"TEME","FILE":"3135298","OBJECT_NAME":"STARLINK-1893","MEAN_ELEMENT_THEORY":"SGP4","TLE_LINE1":"1 46786U 20074AZ  21272.55574951  .00003970  00000-0  28515-3 0  9992","MEAN_MOTION_DOT":"0.00003970"},{"CLASSIFICATION_TYPE":"U","ARG_OF_PERICENTER":"261.4516","MEAN_MOTION_DDOT":"0.0000000000000","ELEMENT_SET_NO":"999","BSTAR":"0.00001093100000","EPHEMERIS_TYPE":"0","LAUNCH_DATE":"2020-10-24","PERIOD":"95.592","OBJECT_ID":"2020-074BA","NORAD_CAT_ID":"46787","MEAN_ANOMALY":"98.5931","COUNTRY_CODE":"US","RCS_SIZE":"LARGE","INCLINATION":"53.0517","ECCENTRICITY":"0.00047890","OBJECT_TYPE":"PAYLOAD","MEAN_MOTION":"15.06397362","TIME_SYSTEM":"UTC","REV_AT_EPOCH":"5256","GP_ID":"185792804","CENTER_NAME":"EARTH","EPOCH":"2021-09-29T06:47:31.547328","SITE":"AFETR","APOAPSIS":"550.538","TLE_LINE2":"2 46787  53.0517  14.8893 0004789 261.4516  98.5931 15.06397362 52566","RA_OF_ASC_NODE":"14.8893","DECAY_DATE":null,"SEMIMAJOR_AXIS":"6925.357","PERIAPSIS":"543.905","MEAN_MOTION_DOT":"-0.00000120","TLE_LINE1":"1 46787U 20074BA  21272.28300402 -.00000120  00000-0  10931-4 0  9990","OBJECT_NAME":"STARLINK-1899","FILE":"3134986","MEAN_ELEMENT_THEORY":"SGP4","REF_FRAME":"TEME"},{"CLASSIFICATION_TYPE":"U","ARG_OF_PERICENTER":"331.0427","BSTAR":"0.00004814900000","ELEMENT_SET_NO":"999","MEAN_MOTION_DDOT":"0.0000000000000","EPHEMERIS_TYPE":"0","PERIOD":"95.592","LAUNCH_DATE":"2020-10-24","NORAD_CAT_ID":"46788","MEAN_ANOMALY":"29.0245","OBJECT_ID":"2020-074BB","COUNTRY_CODE":"US","RCS_SIZE":"LARGE","INCLINATION":"53.0583","ECCENTRICITY":"0.00057050","MEAN_MOTION":"15.06408626","OBJECT_TYPE":"PAYLOAD","REV_AT_EPOCH":"5229","TIME_SYSTEM":"UTC","GP_ID":"185801839","CENTER_NAME":"EARTH","APOAPSIS":"551.138","EPOCH":"2021-09-29T14:34:36.619392","SITE":"AFETR","TLE_LINE2":"2 46788  53.0583  13.4240 0005705 331.0427  29.0245 15.06408626 52298","RA_OF_ASC_NODE":"13.4240","DECAY_DATE":null,"PERIAPSIS":"543.236","SEMIMAJOR_AXIS":"6925.322","MEAN_MOTION_DOT":"0.00000434","TLE_LINE1":"1 46788U 20074BB  21272.60736828  .00000434  00000-0  48149-4 0  9991","FILE":"3135324","OBJECT_NAME":"STARLINK-1929","MEAN_ELEMENT_THEORY":"SGP4","REF_FRAME":"TEME"},{"BSTAR":"-0.00007155800000","MEAN_MOTION_DDOT":"0.0000000000000","ELEMENT_SET_NO":"999","EPHEMERIS_TYPE":"0","CLASSIFICATION_TYPE":"U","ARG_OF_PERICENTER":"107.6240","COUNTRY_CODE":"US","RCS_SIZE":"LARGE","PERIOD":"95.593","LAUNCH_DATE":"2020-10-24","MEAN_ANOMALY":"252.4880","NORAD_CAT_ID":"46789","OBJECT_ID":"2020-074BC","ECCENTRICITY":"0.00012010","INCLINATION":"53.0547","TIME_SYSTEM":"UTC","REV_AT_EPOCH":"5216","GP_ID":"185791303","MEAN_MOTION":"15.06392331","OBJECT_TYPE":"PAYLOAD","TLE_LINE2":"2 46789  53.0547  44.2908 0001201 107.6240 252.4880 15.06392331 52167","CENTER_NAME":"EARTH","APOAPSIS":"548.069","SITE":"AFETR","EPOCH":"2021-09-29T09:58:34.788288","RA_OF_ASC_NODE":"44.2908","DECAY_DATE":null,"PERIAPSIS":"546.405","SEMIMAJOR_AXIS":"6925.372","MEAN_MOTION_DOT":"-0.00001347","REF_FRAME":"TEME","TLE_LINE1":"1 46789U 20074BC  21272.41568042 -.00001347  00000-0 -71558-4 0  9998","MEAN_ELEMENT_THEORY":"SGP4","FILE":"3134986","OBJECT_NAME":"STARLINK-1930"},{"RCS_SIZE":"LARGE","COUNTRY_CODE":"US","OBJECT_ID":"2020-074BD","NORAD_CAT_ID":"46790","MEAN_ANOMALY":"259.9424","LAUNCH_DATE":"2020-10-24","PERIOD":"95.593","EPHEMERIS_TYPE":"0","MEAN_MOTION_DDOT":"0.0000000000000","ELEMENT_SET_NO":"999","BSTAR":"0.00001539700000","ARG_OF_PERICENTER":"100.1747","CLASSIFICATION_TYPE":"U","GP_ID":"185792053","TIME_SYSTEM":"UTC","REV_AT_EPOCH":"5215","OBJECT_TYPE":"PAYLOAD","MEAN_MOTION":"15.06389439","ECCENTRICITY":"0.00016090","INCLINATION":"53.0562","DECAY_DATE":null,"SEMIMAJOR_AXIS":"6925.381","PERIAPSIS":"546.132","RA_OF_ASC_NODE":"44.3742","TLE_LINE2":"2 46790  53.0562  44.3742 0001609 100.1747 259.9424 15.06389439 52155","SITE":"AFETR","EPOCH":"2021-09-29T09:28:05.967264","APOAPSIS":"548.360","CENTER_NAME":"EARTH","REF_FRAME":"TEME","FILE":"3134986","MEAN_ELEMENT_THEORY":"SGP4","OBJECT_NAME":"STARLINK-1931","TLE_LINE1":"1 46790U 20074BD  21272.39451351 -.00000052  00000-0  15397-4 0  9991","MEAN_MOTION_DOT":"-0.00000052"},{"MEAN_MOTION_DOT":"0.00002476","TLE_LINE1":"1 46791U 20074BE  21272.67465011  .00002476  00000-0  18500-3 0  9990","FILE":"3135327","MEAN_ELEMENT_THEORY":"SGP4","OBJECT_NAME":"STARLINK-1933","REF_FRAME":"TEME","CENTER_NAME":"EARTH","SITE":"AFETR","EPOCH":"2021-09-29T16:11:29.769504","APOAPSIS":"548.189","TLE_LINE2":"2 46791  53.0566  43.1377 0001445 102.0089 258.1062 15.06408220 51876","RA_OF_ASC_NODE":"43.1377","DECAY_DATE":null,"SEMIMAJOR_AXIS":"6925.323","PERIAPSIS":"546.188","INCLINATION":"53.0566","ECCENTRICITY":"0.00014450","OBJECT_TYPE":"PAYLOAD","MEAN_MOTION":"15.06408220","TIME_SYSTEM":"UTC","REV_AT_EPOCH":"5187","GP_ID":"185801882","CLASSIFICATION_TYPE":"U","ARG_OF_PERICENTER":"102.0089","MEAN_MOTION_DDOT":"0.0000000000000","ELEMENT_SET_NO":"999","BSTAR":"0.00018500000000","EPHEMERIS_TYPE":"0","LAUNCH_DATE":"2020-10-24","PERIOD":"95.592","OBJECT_ID":"2020-074BE","NORAD_CAT_ID":"46791","MEAN_ANOMALY":"258.1062","COUNTRY_CODE":"US","RCS_SIZE":"LARGE"},{"INCLINATION":"53.0572","ECCENTRICITY":"0.00014980","MEAN_MOTION":"15.06388458","OBJECT_TYPE":"PAYLOAD","REV_AT_EPOCH":"5200","TIME_SYSTEM":"UTC","GP_ID":"185801891","CLASSIFICATION_TYPE":"U","ARG_OF_PERICENTER":"108.8112","BSTAR":"0.00005652900000","ELEMENT_SET_NO":"999","MEAN_MOTION_DDOT":"0.0000000000000","EPHEMERIS_TYPE":"0","PERIOD":"95.593","LAUNCH_DATE":"2020-10-24","MEAN_ANOMALY":"251.3040","NORAD_CAT_ID":"46792","OBJECT_ID":"2020-074BF","COUNTRY_CODE":"US","RCS_SIZE":"LARGE","MEAN_MOTION_DOT":"0.00000560","TLE_LINE1":"1 46792U 20074BF  21272.63502905  .00000560  00000-0  56529-4 0  9997","OBJECT_NAME":"STARLINK-1934","FILE":"3135327","MEAN_ELEMENT_THEORY":"SGP4","REF_FRAME":"TEME","CENTER_NAME":"EARTH","APOAPSIS":"548.286","SITE":"AFETR","EPOCH":"2021-09-29T15:14:26.509920","TLE_LINE2":"2 46792  53.0572  33.3099 0001498 108.8112 251.3040 15.06388458 52002","RA_OF_ASC_NODE":"33.3099","DECAY_DATE":null,"PERIAPSIS":"546.212","SEMIMAJOR_AXIS":"6925.384"},{"ARG_OF_PERICENTER":"104.0232","CLASSIFICATION_TYPE":"U","EPHEMERIS_TYPE":"0","ELEMENT_SET_NO":"999","MEAN_MOTION_DDOT":"0.0000000000000","BSTAR":"0.00002762900000","OBJECT_ID":"2020-074BG","MEAN_ANOMALY":"256.0918","NORAD_CAT_ID":"46793","LAUNCH_DATE":"2020-10-24","PERIOD":"95.592","RCS_SIZE":"LARGE","COUNTRY_CODE":"US","INCLINATION":"53.0574","ECCENTRICITY":"0.00014510","OBJECT_TYPE":"PAYLOAD","MEAN_MOTION":"15.06399945","GP_ID":"185801426","REV_AT_EPOCH":"5187","TIME_SYSTEM":"UTC","EPOCH":"2021-09-29T15:55:34.026528","SITE":"AFETR","APOAPSIS":"548.219","CENTER_NAME":"EARTH","TLE_LINE2":"2 46793  53.0574  43.1668 0001451 104.0232 256.0918 15.06399945 51879","PERIAPSIS":"546.209","DECAY_DATE":null,"SEMIMAJOR_AXIS":"6925.349","RA_OF_ASC_NODE":"43.1668","MEAN_MOTION_DOT":"0.00000130","FILE":"3135387","OBJECT_NAME":"STARLINK-1941","MEAN_ELEMENT_THEORY":"SGP4","TLE_LINE1":"1 46793U 20074BG  21272.66358827  .00000130  00000-0  27629-4 0  9995","REF_FRAME":"TEME"},{"DECAY_DATE":null,"PERIAPSIS":"546.226","SEMIMAJOR_AXIS":"6925.350","RA_OF_ASC_NODE":"44.3435","TLE_LINE2":"2 46794  53.0554  44.3435 0001427 109.8886 250.2256 15.06399657 52168","EPOCH":"2021-09-29T09:44:02.917248","SITE":"AFETR","APOAPSIS":"548.203","CENTER_NAME":"EARTH","REF_FRAME":"TEME","FILE":"3134986","OBJECT_NAME":"STARLINK-1942","MEAN_ELEMENT_THEORY":"SGP4","TLE_LINE1":"1 46794U 20074BH  21272.40558932  .00001861  00000-0  14377-3 0  9994","MEAN_MOTION_DOT":"0.00001861","RCS_SIZE":"LARGE","COUNTRY_CODE":"US","OBJECT_ID":"2020-074BH","MEAN_ANOMALY":"250.2256","NORAD_CAT_ID":"46794","LAUNCH_DATE":"2020-10-24","PERIOD":"95.592","EPHEMERIS_TYPE":"0","MEAN_MOTION_DDOT":"0.0000000000000","ELEMENT_SET_NO":"999","BSTAR":"0.00014377000000","ARG_OF_PERICENTER":"109.8886","CLASSIFICATION_TYPE":"U","GP_ID":"185791554","REV_AT_EPOCH":"5216","TIME_SYSTEM":"UTC","OBJECT_TYPE":"PAYLOAD","MEAN_MOTION":"15.06399657","ECCENTRICITY":"0.00014270","INCLINATION":"53.0554"}];
